STARLINK-3043           
1 49179U 21082BB  25361.61272243  .00002255  00000+0  19669-3 0  9994
2 49179  69.9999  76.1766 0003050 272.2429  87.8381 14.98328300236163
STARLINK-3050           
1 49180U 21082BC  25361.52951191 -.00000672  00000+0 -48538-4 0  9993
2 49180  70.0008  96.3951 0003138 261.9700  98.1103 14.98331784236834
STARLINK-3059           
1 49181U 21082BD  25361.76759030 -.00001976  00000+0 -15794-3 0  9993
2 49181  70.0015 115.7994 0003446 268.3171  91.7594 14.98303644236399
STARLINK-3151           
1 49408U 21104A   25361.77617153 -.00000198  00000+0  56533-5 0  9992
2 49408  53.2165 191.9851 0001564 101.3841 258.7327 15.08844144227775
STARLINK-3075           
1 49409U 21104B   25361.78993542  .00001480  00000+0  11107-3 0  9993
2 49409  53.2159 191.8896 0001501  90.8134 269.3030 15.08839911227781
STARLINK-3147           
1 49410U 21104C   25361.84977269 -.00001841  00000+0 -97637-4 0  9996
2 49410  53.2158 191.6323 0001309  88.8619 271.2524 15.08840236227788
STARLINK-3162           
1 49411U 21104D   25361.77612809 -.00000631  00000+0 -21553-4 0  9995
2 49411  53.2155 181.9505 0001374  85.1201 274.9948 15.08831547227919
STARLINK-3157           
1 49413U 21104F   25361.77340632  .00000740  00000+0  64573-4 0  9997
2 49413  53.2168 181.9752 0001563  84.0342 276.0829 15.08844009227911
STARLINK-3146           
1 49414U 21104G   25361.77891322 -.00001480  00000+0 -74944-4 0  9992
2 49414  53.2148 191.9403 0001352  88.6781 271.4366 15.08820593227778
STARLINK-3159           
1 49415U 21104H   25361.76878240  .00005627  00000+0  37120-3 0  9995
2 49415  53.2149 181.9848 0001426  94.8403 265.2751 15.08855285227904
STARLINK-3133           
1 49416U 21104J   25361.83776772  .00000614  00000+0  56682-4 0  9997
2 49416  53.2158 191.6774 0001550  91.8798 268.2371 15.08839084227789
STARLINK-3154           
1 49417U 21104K   25361.79816745  .00000771  00000+0  66522-4 0  9996
2 49417  53.2167 181.5082 0001486  91.5092 268.6070 15.08837469227912
STARLINK-3111           
1 49418U 21104L   25361.83409815  .00001726  00000+0  12646-3 0  9996
2 49418  53.2157 191.6940 0001346  80.8493 279.2651 15.08844865227773
STARLINK-3120           
1 49419U 21104M   25361.82304691  .00000517  00000+0  50561-4 0  9998
2 49419  53.2167 191.7459 0001519  87.5536 272.5630 15.08838744227777
STARLINK-3110           
1 49420U 21104N   25361.83041830  .00000432  00000+0  45244-4 0  9992
2 49420  53.2177 191.7120 0001692  99.6642 260.4542 15.08830939227775
STARLINK-3112           
1 49421U 21104P   25361.79726826  .00001924  00000+0  13893-3 0  9994
2 49421  53.2161 191.6627 0001827  93.9400 266.1801 15.08845508227778
STARLINK-3161           
1 49422U 21104Q   25361.79093025  .00001420  00000+0  10729-3 0  9999
2 49422  53.2160 192.2039 0001524  90.4187 269.6980 15.08839572227769
