[{"OBJECT_NAME":"STARLINK-3043","OBJECT_ID":"2021-082BB","EPOCH":"2025-12-27T14:42:19.217952","MEAN_MOTION":14.983283,"ECCENTRICITY":0.000305,"INCLINATION":69.9999,"RA_OF_ASC_NODE":76.1766,"ARG_OF_PERICENTER":272.2429,"MEAN_ANOMALY":87.8381,"EPHEMERIS_TYPE":0,"CLASSIFICATION_TYPE":"U","NORAD_CAT_ID":49179,"ELEMENT_SET_NO":999,"REV_AT_EPOCH":23616,"BSTAR":0.00019669,"MEAN_MOTION_DOT":2.255e-5,"MEAN_MOTION_DDOT":0},{"OBJECT_NAME":"STARLINK-3050","OBJECT_ID":"2021-082BC","EPOCH":"2025-12-27T12:42:29.829024","MEAN_MOTION":14.98331784,"ECCENTRICITY":0.0003138,"INCLINATION":70.0008,"RA_OF_ASC_NODE":96.3951,"ARG_OF_PERICENTER":261.97,"MEAN_ANOMALY":98.1103,"EPHEMERIS_TYPE":0,"CLASSIFICATION_TYPE":"U","NORAD_CAT_ID":49180,"ELEMENT_SET_NO":999,"REV_AT_EPOCH":23683,"BSTAR":-4.8538e-5,"MEAN_MOTION_DOT":-6.72e-6,"MEAN_MOTION_DDOT":0},{"OBJECT_NAME":"STARLINK-3059","OBJECT_ID":"2021-082BD","EPOCH":"2025-12-27T18:25:19.801920","MEAN_MOTION":14.98303644,"ECCENTRICITY":0.0003446,"INCLINATION":70.0015,"RA_OF_ASC_NODE":115.7994,"ARG_OF_PERICENTER":268.3171,"MEAN_ANOMALY":91.7594,"EPHEMERIS_TYPE":0,"CLASSIFICATION_TYPE":"U","NORAD_CAT_ID":49181,"ELEMENT_SET_NO":999,"REV_AT_EPOCH":23639,"BSTAR":-0.00015794,"MEAN_MOTION_DOT":-1.976e-5,"MEAN_MOTION_DDOT":0},{"OBJECT_NAME":"STARLINK-3151","OBJECT_ID":"2021-104A","EPOCH":"2025-12-27T18:37:41.220192","MEAN_MOTION":15.08844144,"ECCENTRICITY":0.0001564,"INCLINATION":53.2165,"RA_OF_ASC_NODE":191.9851,"ARG_OF_PERICENTER":101.3841,"MEAN_ANOMALY":258.7327,"EPHEMERIS_TYPE":0,"CLASSIFICATION_TYPE":"U","NORAD_CAT_ID":49408,"ELEMENT_SET_NO":999,"REV_AT_EPOCH":22777,"BSTAR":5.6533e-6,"MEAN_MOTION_DOT":-1.98e-6,"MEAN_MOTION_DDOT":0},{"OBJECT_NAME":"STARLINK-3075","OBJECT_ID":"2021-104B","EPOCH":"2025-12-27T18:57:30.420288","MEAN_MOTION":15.08839911,"ECCENTRICITY":0.0001501,"INCLINATION":53.2159,"RA_OF_ASC_NODE":191.8896,"ARG_OF_PERICENTER":90.8134,"MEAN_ANOMALY":269.303,"EPHEMERIS_TYPE":0,"CLASSIFICATION_TYPE":"U","NORAD_CAT_ID":49409,"ELEMENT_SET_NO":999,"REV_AT_EPOCH":22778,"BSTAR":0.00011107,"MEAN_MOTION_DOT":1.48e-5,"MEAN_MOTION_DDOT":0},{"OBJECT_NAME":"STARLINK-3147","OBJECT_ID":"2021-104C","EPOCH":"2025-12-27T20:23:40.360416","MEAN_MOTION":15.08840236,"ECCENTRICITY":0.0001309,"INCLINATION":53.2158,"RA_OF_ASC_NODE":191.6323,"ARG_OF_PERICENTER":88.8619,"MEAN_ANOMALY":271.2524,"EPHEMERIS_TYPE":0,"CLASSIFICATION_TYPE":"U","NORAD_CAT_ID":49410,"ELEMENT_SET_NO":999,"REV_AT_EPOCH":22778,"BSTAR":-9.7637e-5,"MEAN_MOTION_DOT":-1.841e-5,"MEAN_MOTION_DDOT":0},{"OBJECT_NAME":"STARLINK-3162","OBJECT_ID":"2021-104D","EPOCH":"2025-12-27T18:37:37.466976","MEAN_MOTION":15.08831547,"ECCENTRICITY":0.0001374,"INCLINATION":53.2155,"RA_OF_ASC_NODE":181.9505,"ARG_OF_PERICENTER":85.1201,"MEAN_ANOMALY":274.9948,"EPHEMERIS_TYPE":0,"CLASSIFICATION_TYPE":"U","NORAD_CAT_ID":49411,"ELEMENT_SET_NO":999,"REV_AT_EPOCH":22791,"BSTAR":-2.1553e-5,"MEAN_MOTION_DOT":-6.31e-6,"MEAN_MOTION_DDOT":0},{"OBJECT_NAME":"STARLINK-3157","OBJECT_ID":"2021-104F","EPOCH":"2025-12-27T18:33:42.306048","MEAN_MOTION":15.08844009,"ECCENTRICITY":0.0001563,"INCLINATION":53.2168,"RA_OF_ASC_NODE":181.9752,"ARG_OF_PERICENTER":84.0342,"MEAN_ANOMALY":276.0829,"EPHEMERIS_TYPE":0,"CLASSIFICATION_TYPE":"U","NORAD_CAT_ID":49413,"ELEMENT_SET_NO":999,"REV_AT_EPOCH":22791,"BSTAR":6.4573e-5,"MEAN_MOTION_DOT":7.4e-6,"MEAN_MOTION_DDOT":0},{"OBJECT_NAME":"STARLINK-3146","OBJECT_ID":"2021-104G","EPOCH":"2025-12-27T18:41:38.102208","MEAN_MOTION":15.08820593,"ECCENTRICITY":0.0001352,"INCLINATION":53.2148,"RA_OF_ASC_NODE":191.9403,"ARG_OF_PERICENTER":88.6781,"MEAN_ANOMALY":271.4366,"EPHEMERIS_TYPE":0,"CLASSIFICATION_TYPE":"U","NORAD_CAT_ID":49414,"ELEMENT_SET_NO":999,"REV_AT_EPOCH":22777,"BSTAR":-7.4944e-5,"MEAN_MOTION_DOT":-1.48e-5,"MEAN_MOTION_DDOT":0},{"OBJECT_NAME":"STARLINK-3159","OBJECT_ID":"2021-104H","EPOCH":"2025-12-27T18:27:02.799360","MEAN_MOTION":15.08855285,"ECCENTRICITY":0.0001426,"INCLINATION":53.2149,"RA_OF_ASC_NODE":181.9848,"ARG_OF_PERICENTER":94.8403,"MEAN_ANOMALY":265.2751,"EPHEMERIS_TYPE":0,"CLASSIFICATION_TYPE":"U","NORAD_CAT_ID":49415,"ELEMENT_SET_NO":999,"REV_AT_EPOCH":22790,"BSTAR":0.0003712,"MEAN_MOTION_DOT":5.627e-5,"MEAN_MOTION_DDOT":0},{"OBJECT_NAME":"STARLINK-3133","OBJECT_ID":"2021-104J","EPOCH":"2025-12-27T20:06:23.131008","MEAN_MOTION":15.08839084,"ECCENTRICITY":0.000155,"INCLINATION":53.2158,"RA_OF_ASC_NODE":191.6774,"ARG_OF_PERICENTER":91.8798,"MEAN_ANOMALY":268.2371,"EPHEMERIS_TYPE":0,"CLASSIFICATION_TYPE":"U","NORAD_CAT_ID":49416,"ELEMENT_SET_NO":999,"REV_AT_EPOCH":22778,"BSTAR":5.6682e-5,"MEAN_MOTION_DOT":6.14e-6,"MEAN_MOTION_DDOT":0},{"OBJECT_NAME":"STARLINK-3154","OBJECT_ID":"2021-104K","EPOCH":"2025-12-27T19:09:21.667680","MEAN_MOTION":15.08837469,"ECCENTRICITY":0.0001486,"INCLINATION":53.2167,"RA_OF_ASC_NODE":181.5082,"ARG_OF_PERICENTER":91.5092,"MEAN_ANOMALY":268.607,"EPHEMERIS_TYPE":0,"CLASSIFICATION_TYPE":"U","NORAD_CAT_ID":49417,"ELEMENT_SET_NO":999,"REV_AT_EPOCH":22791,"BSTAR":6.6522e-5,"MEAN_MOTION_DOT":7.71e-6,"MEAN_MOTION_DDOT":0},{"OBJECT_NAME":"STARLINK-3111","OBJECT_ID":"2021-104L","EPOCH":"2025-12-27T20:01:06.080160","MEAN_MOTION":15.08844865,"ECCENTRICITY":0.0001346,"INCLINATION":53.2157,"RA_OF_ASC_NODE":191.694,"ARG_OF_PERICENTER":80.8493,"MEAN_ANOMALY":279.2651,"EPHEMERIS_TYPE":0,"CLASSIFICATION_TYPE":"U","NORAD_CAT_ID":49418,"ELEMENT_SET_NO":999,"REV_AT_EPOCH":22777,"BSTAR":0.00012646,"MEAN_MOTION_DOT":1.726e-5,"MEAN_MOTION_DDOT":0},{"OBJECT_NAME":"STARLINK-3120","OBJECT_ID":"2021-104M","EPOCH":"2025-12-27T19:45:11.253024","MEAN_MOTION":15.08838744,"ECCENTRICITY":0.0001519,"INCLINATION":53.2167,"RA_OF_ASC_NODE":191.7459,"ARG_OF_PERICENTER":87.5536,"MEAN_ANOMALY":272.563,"EPHEMERIS_TYPE":0,"CLASSIFICATION_TYPE":"U","NORAD_CAT_ID":49419,"ELEMENT_SET_NO":999,"REV_AT_EPOCH":22777,"BSTAR":5.0561e-5,"MEAN_MOTION_DOT":5.17e-6,"MEAN_MOTION_DDOT":0},{"OBJECT_NAME":"STARLINK-3110","OBJECT_ID":"2021-104N","EPOCH":"2025-12-27T19:55:48.141120","MEAN_MOTION":15.08830939,"ECCENTRICITY":0.0001692,"INCLINATION":53.2177,"RA_OF_ASC_NODE":191.712,"ARG_OF_PERICENTER":99.6642,"MEAN_ANOMALY":260.4542,"EPHEMERIS_TYPE":0,"CLASSIFICATION_TYPE":"U","NORAD_CAT_ID":49420,"ELEMENT_SET_NO":999,"REV_AT_EPOCH":22777,"BSTAR":4.5244e-5,"MEAN_MOTION_DOT":4.32e-6,"MEAN_MOTION_DDOT":0},{"OBJECT_NAME":"STARLINK-3112","OBJECT_ID":"2021-104P","EPOCH":"2025-12-27T19:08:03.977664","MEAN_MOTION":15.08845508,"ECCENTRICITY":0.0001827,"INCLINATION":53.2161,"RA_OF_ASC_NODE":191.6627,"ARG_OF_PERICENTER":93.94,"MEAN_ANOMALY":266.1801,"EPHEMERIS_TYPE":0,"CLASSIFICATION_TYPE":"U","NORAD_CAT_ID":49421,"ELEMENT_SET_NO":999,"REV_AT_EPOCH":22777,"BSTAR":0.00013893,"MEAN_MOTION_DOT":1.924e-5,"MEAN_MOTION_DDOT":0},{"OBJECT_NAME":"STARLINK-3161","OBJECT_ID":"2021-104Q","EPOCH":"2025-12-27T18:58:56.373600","MEAN_MOTION":15.08839572,"ECCENTRICITY":0.0001524,"INCLINATION":53.216,"RA_OF_ASC_NODE":192.2039,"ARG_OF_PERICENTER":90.4187,"MEAN_ANOMALY":269.698,"EPHEMERIS_TYPE":0,"CLASSIFICATION_TYPE":"U","NORAD_CAT_ID":49422,"ELEMENT_SET_NO":999,"REV_AT_EPOCH":22776,"BSTAR":0.00010729,"MEAN_MOTION_DOT":1.42e-5,"MEAN_MOTION_DDOT":0}]
